[{"OBJECT_NAME":"SAUDISAT 5A","OBJECT_ID":"2018-102A","EPOCH":"2026-03-09T23:40:00.596928","MEAN_MOTION":15.26941021,"ECCENTRICITY":0.00113651,"INCLINATION":97.3185,"RA_OF_ASC_NODE":132.4981,"ARG_OF_PERICENTER":121.7113,"MEAN_ANOMALY":238.5235,"EPHEMERIS_TYPE":0,"CLASSIFICATION_TYPE":"U","NORAD_CAT_ID":43831,"ELEMENT_SET_NO":999,"REV_AT_EPOCH":40053,"BSTAR":0.00030305233,"MEAN_MOTION_DOT":7.96e-5,"MEAN_MOTION_DDOT":0},{"OBJECT_NAME":"STARLINK-30821","OBJECT_ID":"2023-167G","EPOCH":"2026-03-08T11:43:15.836736","MEAN_MOTION":15.26757242,"ECCENTRICITY":0.00011052,"INCLINATION":42.9974,"RA_OF_ASC_NODE":149.9789,"ARG_OF_PERICENTER":242.9585,"MEAN_ANOMALY":117.1154,"EPHEMERIS_TYPE":0,"CLASSIFICATION_TYPE":"U","NORAD_CAT_ID":58181,"ELEMENT_SET_NO":999,"REV_AT_EPOCH":13079,"BSTAR":0.00013541025,"MEAN_MOTION_DOT":3.376e-5,"MEAN_MOTION_DDOT":0}]
